YUNHAI-1 03             
1 53877U 22115A   22275.31064389  .00000213  00000+0  94078-4 0  9990
2 53877  98.4976 273.8205 0001492  94.4693 265.6669 14.32793841  1635
CZ-2D R/B               
1 53878U 22115B   22275.60260670  .00000782  00000+0  13123-3 0  9996
2 53878  98.5449 274.8429 0124407   6.8442 353.4423 14.67936223  1716
SOYUZ-MS 22             
1 53879U 22116A   22275.53751291  .00024831  00000+0  44670-3 0  9996
2 53879  51.6420 164.7267 0002961 256.7766 159.6586 15.49677524361833
2022-118A               
1 53884U 22118A   22275.51610787  .00004263  00000+0  18468-3 0  9999
2 53884  97.5205 282.0313 0013715 232.3412 279.0739 15.22870771  1155
2022-118B               
1 53885U 22118B   22275.51289509  .00004886  00000+0  20740-3 0  9991
2 53885  97.5202 282.0349 0010842 239.8480 271.3702 15.23518132  1142
STARLINK-5028           
1 53886U 22119A   22275.58334491 -.01243996  00000+0 -60378-2 0  9991
2 53886  53.2188 215.4588 0013062  64.2853   9.2416 15.84100867  1308
STARLINK-5029           
1 53887U 22119B   22275.58334491 -.01235746  00000+0 -59831-2 0  9998
2 53887  53.2187 215.4558 0012990  63.9114  10.7775 15.84136836  1300
STARLINK-5034           
1 53888U 22119C   22275.58334491 -.01072858  00000+0 -52603-2 0  9992
2 53888  53.2188 215.4579 0010520  80.5491 353.4513 15.84000332  1303
STARLINK-5031           
1 53889U 22119D   22275.58334491 -.01226609  00000+0 -59505-2 0  9996
2 53889  53.2188 215.4567 0011794  66.6485   7.7132 15.84112704  1306
STARLINK-5050           
1 53890U 22119E   22275.58334491  .00221229  29582-4  58949-3 0  9991
2 53890  53.2241 215.3716 0040482  76.5814  42.8602 15.92663701  1304
STARLINK-5041           
1 53891U 22119F   22275.58334491 -.01151318  00000+0 -56544-2 0  9993
2 53891  53.2188 215.4544 0011927  63.0016  12.4589 15.84118625  1300
STARLINK-5046           
1 53892U 22119G   22275.58334491 -.00326354  00000+0 -14992-2 0  9998
2 53892  53.2179 215.4499 0010493  85.8794 351.6563 15.83597025  1306
STARLINK-5052           
1 53893U 22119H   22275.58334491 -.01146777  00000+0 -56232-2 0  9992
2 53893  53.2187 215.4524 0011034  72.0501   4.4497 15.84165742  1308
STARLINK-5043           
1 53894U 22119J   22275.58334491 -.01148992  00000+0 -56351-2 0  9996
2 53894  53.2188 215.4544 0012125  62.5250  13.2527 15.84135848  1305
STARLINK-5032           
1 53895U 22119K   22275.58334491 -.01126516  00000+0 -55098-2 0  9992
2 53895  53.2187 215.4515 0011266  62.5247  14.3975 15.84161930  1304
STARLINK-5037           
1 53896U 22119L   22275.58334491 -.01136325  00000+0 -55507-2 0  9997
2 53896  53.2188 215.4511 0011380  73.5880   3.9203 15.84209067  1306
STARLINK-5035           
1 53897U 22119M   22275.58334491 -.01037063  00000+0 -50425-2 0  9991
2 53897  53.2188 215.4532 0011398  73.4595   2.7672 15.84063088  1309
STARLINK-5044           
1 53898U 22119N   22275.58334491 -.01134784  00000+0 -55332-2 0  9992
2 53898  53.2188 215.4490 0010925  71.6805   6.8907 15.84255202  1309
STARLINK-5042           
1 53899U 22119P   22275.58334491 -.01088662  00000+0 -52960-2 0  9990
2 53899  53.2188 215.4493 0010533  77.8913   0.3904 15.84200931  1301
STARLINK-5045           
1 53900U 22119Q   22275.58334491 -.01089121  00000+0 -52818-2 0  9996
2 53900  53.2186 215.4473 0011013  81.3152 357.9580 15.84253231  1301
STARLINK-5024           
1 53901U 22119R   22275.58334491 -.01111505  00000+0 -54147-2 0  9996
2 53901  53.2188 215.4502 0011418  62.3190  15.5764 15.84203417  1309
STARLINK-5021           
1 53902U 22119S   22275.58334491 -.01234142  00000+0 -58958-2 0  9994
2 53902  53.2188 215.4443 0012412  62.7932  18.1688 15.84427104  1302
STARLINK-5022           
1 53903U 22119T   22275.58334491 -.01122507  00000+0 -54587-2 0  9990
2 53903  53.2187 215.4478 0011828  64.2480  14.7759 15.84254693  1307
STARLINK-4787           
1 53904U 22119U   22275.58334491 -.01203848  00000+0 -57655-2 0  9998
2 53904  53.2186 215.4471 0011374  62.6763  16.8492 15.84343565  1306
STARLINK-5003           
1 53905U 22119V   22275.58334491 -.01205921  00000+0 -57594-2 0  9995
2 53905  53.2187 215.4446 0011822  62.3699  18.2092 15.84392647  1300
STARLINK-5054           
1 53906U 22119W   22275.58334491 -.01239330  00000+0 -59180-2 0  9990
2 53906  53.2187 215.4430 0011786  71.3186  10.3127 15.84464634  1302
STARLINK-5063           
1 53907U 22119X   22275.58334491 -.00936127  00000+0 -44754-2 0  9999
2 53907  53.2188 215.4461 0011341  74.6239   5.3422 15.84174870  1302
STARLINK-5057           
1 53908U 22119Y   22275.58334491 -.01235975  00000+0 -58886-2 0  9995
2 53908  53.2188 215.4425 0012682  63.4394  18.5318 15.84478553  1305
STARLINK-4796           
1 53909U 22119Z   22275.58334491 -.01206196  00000+0 -57713-2 0  9997
2 53909  53.2187 215.4455 0011058  62.4303  17.8110 15.84376327  1301
STARLINK-5056           
1 53910U 22119AA  22275.58334491 -.01238087  00000+0 -58879-2 0  9997
2 53910  53.2187 215.4402 0012516  63.1849  19.8700 15.84525295  1305
STARLINK-5048           
1 53911U 22119AB  22275.58334491 -.01235216  00000+0 -58970-2 0  9991
2 53911  53.2187 215.4434 0012254  62.9695  18.2837 15.84447609  1302
STARLINK-5059           
1 53912U 22119AC  22275.58334491 -.01047638  00000+0 -50213-2 0  9993
2 53912  53.2188 215.4411 0011422  73.3836   9.3507 15.84384275  1302
STARLINK-5053           
1 53913U 22119AD  22275.58334491 -.01237490  00000+0 -58719-2 0  9990
2 53913  53.2187 215.4386 0012862  63.3595  20.3388 15.84559834  1308
STARLINK-5040           
1 53914U 22119AE  22275.58334491 -.01238056  00000+0 -58665-2 0  9990
2 53914  53.2187 215.4383 0013176  63.7682  20.2189 15.84579755  1308
STARLINK-5017           
1 53915U 22119AF  22275.58334491 -.01238547  00000+0 -58929-2 0  9999
2 53915  53.2188 215.4417 0012991  63.5242  18.7014 15.84502203  1305
STARLINK-5051           
1 53916U 22119AG  22275.58334491 -.00800608  00000+0 -37565-2 0  9995
2 53916  53.2186 215.4380 0009897  79.5514   4.9584 15.84281525  1303
STARLINK-5036           
1 53917U 22119AH  22275.58334491 -.01239947  00000+0 -58859-2 0  9998
2 53917  53.2188 215.4397 0013149  64.2650  19.0507 15.84547893  1306
STARLINK-5012           
1 53918U 22119AJ  22275.58334491 -.01231882  00000+0 -58301-2 0  9991
2 53918  53.2187 215.4370 0012829  63.7142  21.0306 15.84603005  1309
STARLINK-5023           
1 53919U 22119AK  22275.58334491 -.01239537  00000+0 -58723-2 0  9995
2 53919  53.2187 215.4357 0012050  63.1092  22.0490 15.84620448  1304
STARLINK-5025           
1 53920U 22119AL  22275.58334491 -.01217814  00000+0 -57397-2 0  9997
2 53920  53.2188 215.4335 0012417  65.7112  20.7732 15.84672027  1305
STARLINK-5005           
1 53921U 22119AM  22275.58334491  .00260791  37798-4  57358-3 0  9994
2 53921  53.2242 215.3073 0049763  74.6946  76.2647 15.95304807  1304
STARLINK-5002           
1 53922U 22119AN  22275.58334491 -.01217586  00000+0 -57271-2 0  9996
2 53922  53.2188 215.4331 0013134  63.5968  23.1686 15.84691506  1303
STARLINK-5004           
1 53923U 22119AP  22275.58334491 -.01236224  00000+0 -58307-2 0  9998
2 53923  53.2188 215.4341 0013304  64.3182  21.8430 15.84667455  1309
STARLINK-5001           
1 53924U 22119AQ  22275.58334491 -.01137515  00000+0 -54129-2 0  9990
2 53924  53.2188 215.4310 0013260  64.0155  23.8115 15.84693859  1303
STARLINK-5011           
1 53925U 22119AR  22275.58334491 -.01175669  00000+0 -56023-2 0  9998
2 53925  53.2188 215.4355 0017359  66.5794  18.8014 15.84612527  1307
STARLINK-5014           
1 53926U 22119AS  22275.58334491 -.01137483  00000+0 -54063-2 0  9993
2 53926  53.2187 215.4304 0013418  64.0291  24.0847 15.84713181  1309
STARLINK-5008           
1 53927U 22119AT  22275.58334491 -.01215822  00000+0 -57077-2 0  9996
2 53927  53.2187 215.4311 0013384  65.0312  22.4485 15.84720206  1301
STARLINK-5009           
1 53928U 22119AU  22275.58334491 -.01138109  00000+0 -54042-2 0  9998
2 53928  53.2187 215.4298 0013560  64.0904  24.3677 15.84729374  1307
STARLINK-5018           
1 53929U 22119AV  22275.58334491 -.01203740  00000+0 -56613-2 0  9999
2 53929  53.2188 215.4322 0012039  66.6880  20.4121 15.84698442  1300
STARLINK-5010           
1 53930U 22119AW  22275.58334491 -.01136202  00000+0 -53881-2 0  9993
2 53930  53.2187 215.4285 0013148  63.4630  25.6048 15.84764663  1303
STARLINK-5015           
1 53931U 22119AX  22275.58334491 -.01223330  00000+0 -57261-2 0  9999
2 53931  53.2187 215.4268 0011539  70.9611  18.7064 15.84849666  1307
STARLINK-4772           
1 53932U 22119AY  22275.58334491 -.01077914  00000+0 -50874-2 0  9998
2 53932  53.2188 215.4283 0012447  68.9822  20.3206 15.84744100  1300
STARLINK-4782           
1 53933U 22119AZ  22275.58334491 -.01137939  00000+0 -54061-2 0  9995
2 53933  53.2187 215.4289 0012553  63.1777  25.5475 15.84750274  1304
STARLINK-4775           
1 53934U 22119BA  22275.58334491 -.01111426  00000+0 -52513-2 0  9999
2 53934  53.2187 215.4267 0012690  63.4729  26.6069 15.84794489  1300
STARLINK-5000           
1 53935U 22119BB  22275.58334491 -.01142646  00000+0 -54037-2 0  9991
2 53935  53.2188 215.4247 0012837  63.6303  27.1680 15.84846558  1303
STARLINK-4791           
1 53936U 22119BC  22275.58334491 -.01143891  00000+0 -54134-2 0  9993
2 53936  53.2188 215.4261 0012700  63.5226  26.8108 15.84839380  1308
STARLINK-4765           
1 53937U 22119BD  22275.58334491 -.01222938  00000+0 -57087-2 0  9994
2 53937  53.2187 215.4243 0011059  68.7472  22.2067 15.84917906  1309
FALCON 9 DEB            
1 53938U 22119BE  22274.29147950  .00757321  28692-3  91880-3 0  9991
2 53938  53.2276 221.7694 0067624  72.0706 288.7685 16.02831013  1856
FALCON 9 DEB            
1 53939U 22119BF  22274.28963672  .00720383  26077-3  87226-3 0  9990
2 53939  53.2257 221.7533 0063197  73.7718 287.0257 16.03414835  1857
